{
  "type": "FeatureCollection",
  "features": [
    {
      "type": "Feature",
      "properties": {
        "norad_id": 42989,
        "name": "SKYSAT-C9",
        "group": "resource",
        "lat": 62.01059826420352,
        "lon": 117.40757614737775,
        "alt_km": 444.2450007422758,
        "timestamp": "2025-12-27T05:29:38.851742+00:00",
        "meta_object_name": "SKYSAT-C9",
        "meta_object_id": "2017-068C",
        "meta_epoch": "2025-12-26T21:24:22.573152",
        "meta_mean_motion": 15.36412829,
        "meta_eccentricity": 0.00101768,
        "meta_inclination": 97.4191,
        "meta_ra_of_asc_node": 131.2605,
        "meta_arg_of_pericenter": 42.177,
        "meta_mean_anomaly": 318.0255,
        "meta_ephemeris_type": 0,
        "meta_classification_type": "U",
        "meta_norad_cat_id": 42989,
        "meta_element_set_no": 999,
        "meta_rev_at_epoch": 45625,
        "meta_bstar": 0.00042464695,
        "meta_mean_motion_dot": 0.00015037,
        "meta_mean_motion_ddot": 0,
        "tle_line1": "1 42989U 17068C   25360.89192793  .00015037  00000+0  42465-3 0  9997",
        "tle_line2": "2 42989  97.4191 131.2605 0010176  42.1770 318.0255 15.36412829456256"
      },
      "geometry": {
        "type": "Point",
        "coordinates": [
          117.40757614737775,
          62.01059826420352
        ]
      }
    },
    {
      "type": "Feature",
      "properties": {
        "norad_id": 42990,
        "name": "SKYSAT-C8",
        "group": "resource",
        "lat": -49.08887890530174,
        "lon": -57.36479349822729,
        "alt_km": 472.4616988710786,
        "timestamp": "2025-12-27T05:29:38.851753+00:00",
        "meta_object_name": "SKYSAT-C8",
        "meta_object_id": "2017-068D",
        "meta_epoch": "2025-12-26T20:39:51.012576",
        "meta_mean_motion": 15.33236575,
        "meta_eccentricity": 9.593e-05,
        "meta_inclination": 97.4287,
        "meta_ra_of_asc_node": 130.9255,
        "meta_arg_of_pericenter": 255.1307,
        "meta_mean_anomaly": 104.9829,
        "meta_ephemeris_type": 0,
        "meta_classification_type": "U",
        "meta_norad_cat_id": 42990,
        "meta_element_set_no": 999,
        "meta_rev_at_epoch": 45587,
        "meta_bstar": 0.00042835283,
        "meta_mean_motion_dot": 0.00013686,
        "meta_mean_motion_ddot": 0,
        "tle_line1": "1 42990U 17068D   25360.86100709  .00013686  00000+0  42835-3 0  9991",
        "tle_line2": "2 42990  97.4287 130.9255 0000959 255.1307 104.9829 15.33236575455876"
      },
      "geometry": {
        "type": "Point",
        "coordinates": [
          -57.36479349822729,
          -49.08887890530174
        ]
      }
    },
    {
      "type": "Feature",
      "properties": {
        "norad_id": 42991,
        "name": "SKYSAT-C7",
        "group": "resource",
        "lat": 53.05433723871737,
        "lon": 122.33269389691239,
        "alt_km": 459.6593140054192,
        "timestamp": "2025-12-27T05:29:38.851763+00:00",
        "meta_object_name": "SKYSAT-C7",
        "meta_object_id": "2017-068E",
        "meta_epoch": "2025-12-26T21:25:34.337856",
        "meta_mean_motion": 15.32631091,
        "meta_eccentricity": 0.00067463,
        "meta_inclination": 97.4295,
        "meta_ra_of_asc_node": 131.9873,
        "meta_arg_of_pericenter": 11.5715,
        "meta_mean_anomaly": 348.5681,
        "meta_ephemeris_type": 0,
        "meta_classification_type": "U",
        "meta_norad_cat_id": 42991,
        "meta_element_set_no": 999,
        "meta_rev_at_epoch": 45594,
        "meta_bstar": 0.00041025663,
        "meta_mean_motion_dot": 0.00012865,
        "meta_mean_motion_ddot": 0,
        "tle_line1": "1 42991U 17068E   25360.89275854  .00012865  00000+0  41026-3 0  9998",
        "tle_line2": "2 42991  97.4295 131.9873 0006746  11.5715 348.5681 15.32631091455941"
      },
      "geometry": {
        "type": "Point",
        "coordinates": [
          122.33269389691239,
          53.05433723871737
        ]
      }
    },
    {
      "type": "Feature",
      "properties": {
        "norad_id": 42992,
        "name": "SKYSAT-C6",
        "group": "resource",
        "lat": 52.4401747419468,
        "lon": -37.474563813299994,
        "alt_km": 465.301503952699,
        "timestamp": "2025-12-27T05:29:38.851773+00:00",
        "meta_object_name": "SKYSAT-C6",
        "meta_object_id": "2017-068F",
        "meta_epoch": "2025-12-26T21:06:12.822912",
        "meta_mean_motion": 15.31783145,
        "meta_eccentricity": 0.00046775,
        "meta_inclination": 97.4325,
        "meta_ra_of_asc_node": 132.4007,
        "meta_arg_of_pericenter": 43.8732,
        "meta_mean_anomaly": 316.288,
        "meta_ephemeris_type": 0,
        "meta_classification_type": "U",
        "meta_norad_cat_id": 42992,
        "meta_element_set_no": 999,
        "meta_rev_at_epoch": 45592,
        "meta_bstar": 0.00040063761,
        "meta_mean_motion_dot": 0.00012227,
        "meta_mean_motion_ddot": 0,
        "tle_line1": "1 42992U 17068F   25360.87931508  .00012227  00000+0  40064-3 0  9995",
        "tle_line2": "2 42992  97.4325 132.4007 0004677  43.8732 316.2880 15.31783145455927"
      },
      "geometry": {
        "type": "Point",
        "coordinates": [
          -37.474563813299994,
          52.4401747419468
        ]
      }
    },
    {
      "type": "Feature",
      "properties": {
        "norad_id": 43111,
        "name": "CARTOSAT-2F",
        "group": "resource",
        "lat": -51.15610415970683,
        "lon": 67.95586856840546,
        "alt_km": 516.1021751518801,
        "timestamp": "2025-12-27T05:29:38.851784+00:00",
        "meta_object_name": "CARTOSAT-2F",
        "meta_object_id": "2018-004A",
        "meta_epoch": "2025-12-26T23:23:55.521024",
        "meta_mean_motion": 15.19262099,
        "meta_eccentricity": 0.00016141,
        "meta_inclination": 97.4297,
        "meta_ra_of_asc_node": 58.3802,
        "meta_arg_of_pericenter": 111.5127,
        "meta_mean_anomaly": 248.628,
        "meta_ephemeris_type": 0,
        "meta_classification_type": "U",
        "meta_norad_cat_id": 43111,
        "meta_element_set_no": 999,
        "meta_rev_at_epoch": 44118,
        "meta_bstar": 0.00024026929,
        "meta_mean_motion_dot": 4.998e-05,
        "meta_mean_motion_ddot": 0,
        "tle_line1": "1 43111U 18004A   25360.97494816  .00004998  00000+0  24027-3 0  9994",
        "tle_line2": "2 43111  97.4297  58.3802 0001614 111.5127 248.6280 15.19262099441188"
      },
      "geometry": {
        "type": "Point",
        "coordinates": [
          67.95586856840546,
          -51.15610415970683
        ]
      }
    },
    {
      "type": "Feature",
      "properties": {
        "norad_id": 43259,
        "name": "GAOFEN-1 02",
        "group": "resource",
        "lat": 4.929677298919684,
        "lon": 58.3196223631314,
        "alt_km": 644.7246220650177,
        "timestamp": "2025-12-27T05:29:38.851794+00:00",
        "meta_object_name": "GAOFEN-1 02",
        "meta_object_id": "2018-031A",
        "meta_epoch": "2025-12-26T22:57:56.104704",
        "meta_mean_motion": 14.76444266,
        "meta_eccentricity": 0.0002743,
        "meta_inclination": 98.0783,
        "meta_ra_of_asc_node": 58.7495,
        "meta_arg_of_pericenter": 166.0748,
        "meta_mean_anomaly": 194.0538,
        "meta_ephemeris_type": 0,
        "meta_classification_type": "U",
        "meta_norad_cat_id": 43259,
        "meta_element_set_no": 999,
        "meta_rev_at_epoch": 41728,
        "meta_bstar": 0.00013854082,
        "meta_mean_motion_dot": 9.12e-06,
        "meta_mean_motion_ddot": 0,
        "tle_line1": "1 43259U 18031A   25360.95689936  .00000912  00000+0  13854-3 0  9992",
        "tle_line2": "2 43259  98.0783  58.7495 0002743 166.0748 194.0538 14.76444266417282"
      },
      "geometry": {
        "type": "Point",
        "coordinates": [
          58.3196223631314,
          4.929677298919684
        ]
      }
    },
    {
      "type": "Feature",
      "properties": {
        "norad_id": 43260,
        "name": "GAOFEN-1 03",
        "group": "resource",
        "lat": 57.80670315122603,
        "lon": -108.06482676729317,
        "alt_km": 635.7671374123211,
        "timestamp": "2025-12-27T05:29:38.851804+00:00",
        "meta_object_name": "GAOFEN-1 03",
        "meta_object_id": "2018-031B",
        "meta_epoch": "2025-12-26T22:26:26.755296",
        "meta_mean_motion": 14.7642766,
        "meta_eccentricity": 0.0001661,
        "meta_inclination": 98.0779,
        "meta_ra_of_asc_node": 58.6039,
        "meta_arg_of_pericenter": 249.6116,
        "meta_mean_anomaly": 110.4915,
        "meta_ephemeris_type": 0,
        "meta_classification_type": "U",
        "meta_norad_cat_id": 43260,
        "meta_element_set_no": 999,
        "meta_rev_at_epoch": 41727,
        "meta_bstar": 0.00014538022,
        "meta_mean_motion_dot": 9.59e-06,
        "meta_mean_motion_ddot": 0,
        "tle_line1": "1 43260U 18031B   25360.93503189  .00000959  00000+0  14538-3 0  9998",
        "tle_line2": "2 43260  98.0779  58.6039 0001661 249.6116 110.4915 14.76427660417276"
      },
      "geometry": {
        "type": "Point",
        "coordinates": [
          -108.06482676729317,
          57.80670315122603
        ]
      }
    }
  ]
}